STARLINK-36407          
1 67612U 26018Z   26057.14323966  .00196306  00000+0  12864-2 0  9990
2 67612  97.2846 122.4369 0001730  13.1178 347.0132 15.75199008  5548
STARLINK-36597          
1 67613U 26018AA  26057.16668981 -.00074562  00000+0 -50263-3 0  9999
2 67613  97.2850 122.5192 0000997  69.7680 195.2398 15.75225702  5502
NEONSAT-1A              
1 67614U 26019A   26056.76712179  .00003765  00000+0  25043-3 0  9998
2 67614  97.4096 180.7724 0012824 210.4819 149.5665 15.07677856  4026
ELECTRON KICK STAGE R/B 
1 67616U 26019C   26056.91901376  .00561280  10332-3  19827-2 0  9992
2 67616  97.3998 183.1593 0142657 164.4288 196.1436 15.74665650  4190
STARLINK-36548          
1 67617U 26020A   26056.89673426  .00329334  00000+0  19186-2 0  9991
2 67617  42.9960 213.9553 0002454 332.6273  27.4468 15.76708112  4225
STARLINK-36601          
1 67618U 26020B   26057.16668981  .00015067  00000+0  95384-4 0  9994
2 67618  42.9993 211.6951 0001796 270.5717  72.2274 15.76358804  5537
STARLINK-36119          
1 67619U 26020C   26056.83117546  .00294957  00000+0  17480-2 0  9990
2 67619  42.9995 214.3255 0002328 294.1288  65.9338 15.76417435  4214
STARLINK-36607          
1 67620U 26020D   26056.80052265  .00270352  00000+0  15908-2 0  9991
2 67620  42.9987 214.0756 0002814 304.8317  55.2287 15.76647133  4217
STARLINK-36615          
1 67621U 26020E   26057.16668981  .00001378  00000+0  11459-4 0  9999
2 67621  42.9997 211.5700 0002042 265.2616 127.2863 15.76367713  5534
STARLINK-36614          
1 67622U 26020F   26057.16668981 -.00047926  00000+0 -29271-3 0  9991
2 67622  42.9993 212.2222 0001787 287.6875 203.6021 15.76385745  5538
STARLINK-36600          
1 67623U 26020G   26057.14578713  .00378239  00000+0  22163-2 0  9997
2 67623  42.9988 212.3809 0001267 294.8560  65.2178 15.76440465  4264
STARLINK-36439          
1 67624U 26020H   26057.13485161  .00338957  00000+0  19657-2 0  9998
2 67624  42.9977 212.2912 0001579   0.1174 359.9696 15.76783995  4268
