CCSDS_OMM_VERS = 2.0
CREATION_DATE  = 
ORIGINATOR     = 

OBJECT_NAME    = STARLINK-36407
OBJECT_ID      = 2026-018Z
CENTER_NAME    = EARTH
REF_FRAME      = TEME
TIME_SYSTEM    = UTC
MEAN_ELEMENT_THEORY = SGP/SGP4

EPOCH          = 2026-02-26T03:26:15.906624
MEAN_MOTION    = 15.75199008
ECCENTRICITY   = .000173
INCLINATION    = 97.2846
RA_OF_ASC_NODE = 122.4369
ARG_OF_PERICENTER = 13.1178
MEAN_ANOMALY   = 347.0132

EPHEMERIS_TYPE = 0
CLASSIFICATION_TYPE = U
NORAD_CAT_ID   = 67612
ELEMENT_SET_NO = 999
REV_AT_EPOCH   = 554
BSTAR          = .12864E-2
MEAN_MOTION_DOT = .196306E-2
MEAN_MOTION_DDOT = 0

CCSDS_OMM_VERS = 2.0
CREATION_DATE  = 
ORIGINATOR     = 

OBJECT_NAME    = STARLINK-36597
OBJECT_ID      = 2026-018AA
CENTER_NAME    = EARTH
REF_FRAME      = TEME
TIME_SYSTEM    = UTC
MEAN_ELEMENT_THEORY = SGP/SGP4

EPOCH          = 2026-02-26T04:00:01.999584
MEAN_MOTION    = 15.75225702
ECCENTRICITY   = .0000997
INCLINATION    = 97.2850
RA_OF_ASC_NODE = 122.5192
ARG_OF_PERICENTER = 69.7680
MEAN_ANOMALY   = 195.2398

EPHEMERIS_TYPE = 0
CLASSIFICATION_TYPE = U
NORAD_CAT_ID   = 67613
ELEMENT_SET_NO = 999
REV_AT_EPOCH   = 550
BSTAR          = -.50263E-3
MEAN_MOTION_DOT = -.74562E-3
MEAN_MOTION_DDOT = 0

CCSDS_OMM_VERS = 2.0
CREATION_DATE  = 
ORIGINATOR     = 

OBJECT_NAME    = NEONSAT-1A
OBJECT_ID      = 2026-019A
CENTER_NAME    = EARTH
REF_FRAME      = TEME
TIME_SYSTEM    = UTC
MEAN_ELEMENT_THEORY = SGP/SGP4

EPOCH          = 2026-02-25T18:24:39.322656
MEAN_MOTION    = 15.07677856
ECCENTRICITY   = .0012824
INCLINATION    = 97.4096
RA_OF_ASC_NODE = 180.7724
ARG_OF_PERICENTER = 210.4819
MEAN_ANOMALY   = 149.5665

EPHEMERIS_TYPE = 0
CLASSIFICATION_TYPE = U
NORAD_CAT_ID   = 67614
ELEMENT_SET_NO = 999
REV_AT_EPOCH   = 402
BSTAR          = .25043E-3
MEAN_MOTION_DOT = .3765E-4
MEAN_MOTION_DDOT = 0

CCSDS_OMM_VERS = 2.0
CREATION_DATE  = 
ORIGINATOR     = 

OBJECT_NAME    = ELECTRON KICK STAGE R/B
OBJECT_ID      = 2026-019C
CENTER_NAME    = EARTH
REF_FRAME      = TEME
TIME_SYSTEM    = UTC
MEAN_ELEMENT_THEORY = SGP/SGP4

EPOCH          = 2026-02-25T22:03:22.788864
MEAN_MOTION    = 15.74665650
ECCENTRICITY   = .0142657
INCLINATION    = 97.3998
RA_OF_ASC_NODE = 183.1593
ARG_OF_PERICENTER = 164.4288
MEAN_ANOMALY   = 196.1436

EPHEMERIS_TYPE = 0
CLASSIFICATION_TYPE = U
NORAD_CAT_ID   = 67616
ELEMENT_SET_NO = 999
REV_AT_EPOCH   = 419
BSTAR          = .19827E-2
MEAN_MOTION_DOT = .56128E-2
MEAN_MOTION_DDOT = .10332E-3

CCSDS_OMM_VERS = 2.0
CREATION_DATE  = 
ORIGINATOR     = 

OBJECT_NAME    = STARLINK-36548
OBJECT_ID      = 2026-020A
CENTER_NAME    = EARTH
REF_FRAME      = TEME
TIME_SYSTEM    = UTC
MEAN_ELEMENT_THEORY = SGP/SGP4

EPOCH          = 2026-02-25T21:31:17.840064
MEAN_MOTION    = 15.76708112
ECCENTRICITY   = .0002454
INCLINATION    = 42.9960
RA_OF_ASC_NODE = 213.9553
ARG_OF_PERICENTER = 332.6273
MEAN_ANOMALY   = 27.4468

EPHEMERIS_TYPE = 0
CLASSIFICATION_TYPE = U
NORAD_CAT_ID   = 67617
ELEMENT_SET_NO = 999
REV_AT_EPOCH   = 422
BSTAR          = .19186E-2
MEAN_MOTION_DOT = .329334E-2
MEAN_MOTION_DDOT = 0

CCSDS_OMM_VERS = 2.0
CREATION_DATE  = 
ORIGINATOR     = 

OBJECT_NAME    = STARLINK-36601
OBJECT_ID      = 2026-020B
CENTER_NAME    = EARTH
REF_FRAME      = TEME
TIME_SYSTEM    = UTC
MEAN_ELEMENT_THEORY = SGP/SGP4

EPOCH          = 2026-02-26T04:00:01.999584
MEAN_MOTION    = 15.76358804
ECCENTRICITY   = .0001796
INCLINATION    = 42.9993
RA_OF_ASC_NODE = 211.6951
ARG_OF_PERICENTER = 270.5717
MEAN_ANOMALY   = 72.2274

EPHEMERIS_TYPE = 0
CLASSIFICATION_TYPE = U
NORAD_CAT_ID   = 67618
ELEMENT_SET_NO = 999
REV_AT_EPOCH   = 553
BSTAR          = .95384E-4
MEAN_MOTION_DOT = .15067E-3
MEAN_MOTION_DDOT = 0

CCSDS_OMM_VERS = 2.0
CREATION_DATE  = 
ORIGINATOR     = 

OBJECT_NAME    = STARLINK-36119
OBJECT_ID      = 2026-020C
CENTER_NAME    = EARTH
REF_FRAME      = TEME
TIME_SYSTEM    = UTC
MEAN_ELEMENT_THEORY = SGP/SGP4

EPOCH          = 2026-02-25T19:56:53.559744
MEAN_MOTION    = 15.76417435
ECCENTRICITY   = .0002328
INCLINATION    = 42.9995
RA_OF_ASC_NODE = 214.3255
ARG_OF_PERICENTER = 294.1288
MEAN_ANOMALY   = 65.9338

EPHEMERIS_TYPE = 0
CLASSIFICATION_TYPE = U
NORAD_CAT_ID   = 67619
ELEMENT_SET_NO = 999
REV_AT_EPOCH   = 421
BSTAR          = .1748E-2
MEAN_MOTION_DOT = .294957E-2
MEAN_MOTION_DDOT = 0

CCSDS_OMM_VERS = 2.0
CREATION_DATE  = 
ORIGINATOR     = 

OBJECT_NAME    = STARLINK-36607
OBJECT_ID      = 2026-020D
CENTER_NAME    = EARTH
REF_FRAME      = TEME
TIME_SYSTEM    = UTC
MEAN_ELEMENT_THEORY = SGP/SGP4

EPOCH          = 2026-02-25T19:12:45.156960
MEAN_MOTION    = 15.76647133
ECCENTRICITY   = .0002814
INCLINATION    = 42.9987
RA_OF_ASC_NODE = 214.0756
ARG_OF_PERICENTER = 304.8317
MEAN_ANOMALY   = 55.2287

EPHEMERIS_TYPE = 0
CLASSIFICATION_TYPE = U
NORAD_CAT_ID   = 67620
ELEMENT_SET_NO = 999
REV_AT_EPOCH   = 421
BSTAR          = .15908E-2
MEAN_MOTION_DOT = .270352E-2
MEAN_MOTION_DDOT = 0

CCSDS_OMM_VERS = 2.0
CREATION_DATE  = 
ORIGINATOR     = 

OBJECT_NAME    = STARLINK-36615
OBJECT_ID      = 2026-020E
CENTER_NAME    = EARTH
REF_FRAME      = TEME
TIME_SYSTEM    = UTC
MEAN_ELEMENT_THEORY = SGP/SGP4

EPOCH          = 2026-02-26T04:00:01.999584
MEAN_MOTION    = 15.76367713
ECCENTRICITY   = .0002042
INCLINATION    = 42.9997
RA_OF_ASC_NODE = 211.5700
ARG_OF_PERICENTER = 265.2616
MEAN_ANOMALY   = 127.2863

EPHEMERIS_TYPE = 0
CLASSIFICATION_TYPE = U
NORAD_CAT_ID   = 67621
ELEMENT_SET_NO = 999
REV_AT_EPOCH   = 553
BSTAR          = .11459E-4
MEAN_MOTION_DOT = .1378E-4
MEAN_MOTION_DDOT = 0

CCSDS_OMM_VERS = 2.0
CREATION_DATE  = 
ORIGINATOR     = 

OBJECT_NAME    = STARLINK-36614
OBJECT_ID      = 2026-020F
CENTER_NAME    = EARTH
REF_FRAME      = TEME
TIME_SYSTEM    = UTC
MEAN_ELEMENT_THEORY = SGP/SGP4

EPOCH          = 2026-02-26T04:00:01.999584
MEAN_MOTION    = 15.76385745
ECCENTRICITY   = .0001787
INCLINATION    = 42.9993
RA_OF_ASC_NODE = 212.2222
ARG_OF_PERICENTER = 287.6875
MEAN_ANOMALY   = 203.6021

EPHEMERIS_TYPE = 0
CLASSIFICATION_TYPE = U
NORAD_CAT_ID   = 67622
ELEMENT_SET_NO = 999
REV_AT_EPOCH   = 553
BSTAR          = -.29271E-3
MEAN_MOTION_DOT = -.47926E-3
MEAN_MOTION_DDOT = 0

CCSDS_OMM_VERS = 2.0
CREATION_DATE  = 
ORIGINATOR     = 

OBJECT_NAME    = STARLINK-36600
OBJECT_ID      = 2026-020G
CENTER_NAME    = EARTH
REF_FRAME      = TEME
TIME_SYSTEM    = UTC
MEAN_ELEMENT_THEORY = SGP/SGP4

EPOCH          = 2026-02-26T03:29:56.008032
MEAN_MOTION    = 15.76440465
ECCENTRICITY   = .0001267
INCLINATION    = 42.9988
RA_OF_ASC_NODE = 212.3809
ARG_OF_PERICENTER = 294.8560
MEAN_ANOMALY   = 65.2178

EPHEMERIS_TYPE = 0
CLASSIFICATION_TYPE = U
NORAD_CAT_ID   = 67623
ELEMENT_SET_NO = 999
REV_AT_EPOCH   = 426
BSTAR          = .22163E-2
MEAN_MOTION_DOT = .378239E-2
MEAN_MOTION_DDOT = 0

CCSDS_OMM_VERS = 2.0
CREATION_DATE  = 
ORIGINATOR     = 

OBJECT_NAME    = STARLINK-36439
OBJECT_ID      = 2026-020H
CENTER_NAME    = EARTH
REF_FRAME      = TEME
TIME_SYSTEM    = UTC
MEAN_ELEMENT_THEORY = SGP/SGP4

EPOCH          = 2026-02-26T03:14:11.179104
MEAN_MOTION    = 15.76783995
ECCENTRICITY   = .0001579
INCLINATION    = 42.9977
RA_OF_ASC_NODE = 212.2912
ARG_OF_PERICENTER = 0.1174
MEAN_ANOMALY   = 359.9696

EPHEMERIS_TYPE = 0
CLASSIFICATION_TYPE = U
NORAD_CAT_ID   = 67624
ELEMENT_SET_NO = 999
REV_AT_EPOCH   = 426
BSTAR          = .19657E-2
MEAN_MOTION_DOT = .338957E-2
MEAN_MOTION_DDOT = 0

